[{"OBJECT_NAME":"STARLINK-32473","OBJECT_ID":"2024-216T","EPOCH":"2026-03-21T13:57:52.131168","MEAN_MOTION":15.27625906,"ECCENTRICITY":0.0002746,"INCLINATION":42.9989,"RA_OF_ASC_NODE":189.2231,"ARG_OF_PERICENTER":270.711,"MEAN_ANOMALY":89.3427,"EPHEMERIS_TYPE":0,"CLASSIFICATION_TYPE":"U","NORAD_CAT_ID":62049,"ELEMENT_SET_NO":999,"REV_AT_EPOCH":7453,"BSTAR":0.001293234,"MEAN_MOTION_DOT":0.00035549,"MEAN_MOTION_DDOT":0},{"OBJECT_NAME":"STARLINK-32492","OBJECT_ID":"2024-216U","EPOCH":"2026-03-21T18:37:07.460256","MEAN_MOTION":15.27647891,"ECCENTRICITY":0.00020172,"INCLINATION":43.0047,"RA_OF_ASC_NODE":195.022,"ARG_OF_PERICENTER":285.5706,"MEAN_ANOMALY":74.4923,"EPHEMERIS_TYPE":0,"CLASSIFICATION_TYPE":"U","NORAD_CAT_ID":62050,"ELEMENT_SET_NO":999,"REV_AT_EPOCH":7564,"BSTAR":0.001950273,"MEAN_MOTION_DOT":0.00053911,"MEAN_MOTION_DDOT":0},{"OBJECT_NAME":"STARLINK-32496","OBJECT_ID":"2024-216V","EPOCH":"2026-03-21T17:54:45.422784","MEAN_MOTION":15.27650998,"ECCENTRICITY":7.818e-5,"INCLINATION":42.999,"RA_OF_ASC_NODE":195.6582,"ARG_OF_PERICENTER":271.5459,"MEAN_ANOMALY":88.5303,"EPHEMERIS_TYPE":0,"CLASSIFICATION_TYPE":"U","NORAD_CAT_ID":62051,"ELEMENT_SET_NO":999,"REV_AT_EPOCH":7563,"BSTAR":0.001752975,"MEAN_MOTION_DOT":0.00048398,"MEAN_MOTION_DDOT":0},{"OBJECT_NAME":"STARLINK-32495","OBJECT_ID":"2024-216W","EPOCH":"2026-03-21T16:37:02.501184","MEAN_MOTION":15.27639298,"ECCENTRICITY":0.0001206,"INCLINATION":43.0014,"RA_OF_ASC_NODE":195.257,"ARG_OF_PERICENTER":267.0419,"MEAN_ANOMALY":93.0295,"EPHEMERIS_TYPE":0,"CLASSIFICATION_TYPE":"U","NORAD_CAT_ID":62052,"ELEMENT_SET_NO":999,"REV_AT_EPOCH":7563,"BSTAR":0.0015333414,"MEAN_MOTION_DOT":0.00042251,"MEAN_MOTION_DDOT":0},{"OBJECT_NAME":"STARLINK-32494","OBJECT_ID":"2024-216X","EPOCH":"2026-03-21T15:39:53.194464","MEAN_MOTION":15.27653029,"ECCENTRICITY":0.0001666,"INCLINATION":43.0019,"RA_OF_ASC_NODE":195.8162,"ARG_OF_PERICENTER":257.3018,"MEAN_ANOMALY":102.7648,"EPHEMERIS_TYPE":0,"CLASSIFICATION_TYPE":"U","NORAD_CAT_ID":62053,"ELEMENT_SET_NO":999,"REV_AT_EPOCH":7562,"BSTAR":0.001988172,"MEAN_MOTION_DOT":0.0005498,"MEAN_MOTION_DDOT":0},{"OBJECT_NAME":"STARLINK-32408","OBJECT_ID":"2024-216Y","EPOCH":"2026-03-21T17:00:37.942272","MEAN_MOTION":15.27640065,"ECCENTRICITY":0.00019433,"INCLINATION":43.0006,"RA_OF_ASC_NODE":188.4579,"ARG_OF_PERICENTER":271.705,"MEAN_ANOMALY":88.3579,"EPHEMERIS_TYPE":0,"CLASSIFICATION_TYPE":"U","NORAD_CAT_ID":62054,"ELEMENT_SET_NO":999,"REV_AT_EPOCH":7572,"BSTAR":0.0010224853,"MEAN_MOTION_DOT":0.00028034,"MEAN_MOTION_DDOT":0},{"OBJECT_NAME":"STARLINK-32571","OBJECT_ID":"2024-216Z","EPOCH":"2026-03-21T16:01:25.263264","MEAN_MOTION":15.27641709,"ECCENTRICITY":0.00013567,"INCLINATION":43.0014,"RA_OF_ASC_NODE":188.1482,"ARG_OF_PERICENTER":271.0472,"MEAN_ANOMALY":89.0225,"EPHEMERIS_TYPE":0,"CLASSIFICATION_TYPE":"U","NORAD_CAT_ID":62055,"ELEMENT_SET_NO":999,"REV_AT_EPOCH":7581,"BSTAR":0.0010918826,"MEAN_MOTION_DOT":0.00029963,"MEAN_MOTION_DDOT":0},{"OBJECT_NAME":"STARLINK-11465 [DTC]","OBJECT_ID":"2024-217A","EPOCH":"2026-03-21T23:03:18.203040","MEAN_MOTION":15.69718248,"ECCENTRICITY":0.00010646,"INCLINATION":53.158,"RA_OF_ASC_NODE":10.5586,"ARG_OF_PERICENTER":38.4482,"MEAN_ANOMALY":321.6612,"EPHEMERIS_TYPE":0,"CLASSIFICATION_TYPE":"U","NORAD_CAT_ID":62057,"ELEMENT_SET_NO":999,"REV_AT_EPOCH":7710,"BSTAR":0.001194751,"MEAN_MOTION_DOT":0.00146791,"MEAN_MOTION_DDOT":0},{"OBJECT_NAME":"STARLINK-11426 [DTC]","OBJECT_ID":"2024-217B","EPOCH":"2026-03-21T22:56:13.985952","MEAN_MOTION":15.69659338,"ECCENTRICITY":5.969e-5,"INCLINATION":53.1575,"RA_OF_ASC_NODE":10.5246,"ARG_OF_PERICENTER":45.9339,"MEAN_ANOMALY":314.1728,"EPHEMERIS_TYPE":0,"CLASSIFICATION_TYPE":"U","NORAD_CAT_ID":62058,"ELEMENT_SET_NO":999,"REV_AT_EPOCH":7704,"BSTAR":0.0019472972,"MEAN_MOTION_DOT":0.00241825,"MEAN_MOTION_DDOT":0},{"OBJECT_NAME":"STARLINK-11454 [DTC]","OBJECT_ID":"2024-217C","EPOCH":"2026-03-21T05:25:29.045568","MEAN_MOTION":15.69814123,"ECCENTRICITY":0.0001112,"INCLINATION":53.1577,"RA_OF_ASC_NODE":14.5181,"ARG_OF_PERICENTER":107.118,"MEAN_ANOMALY":252.996,"EPHEMERIS_TYPE":0,"CLASSIFICATION_TYPE":"U","NORAD_CAT_ID":62059,"ELEMENT_SET_NO":999,"REV_AT_EPOCH":7698,"BSTAR":0.0016142862,"MEAN_MOTION_DOT":0.00200646,"MEAN_MOTION_DDOT":0},{"OBJECT_NAME":"STARLINK-11473 [DTC]","OBJECT_ID":"2024-217D","EPOCH":"2026-03-21T22:28:08.628672","MEAN_MOTION":15.700321,"ECCENTRICITY":0.00032698,"INCLINATION":53.158,"RA_OF_ASC_NODE":11.1297,"ARG_OF_PERICENTER":23.8003,"MEAN_ANOMALY":336.3166,"EPHEMERIS_TYPE":0,"CLASSIFICATION_TYPE":"U","NORAD_CAT_ID":62060,"ELEMENT_SET_NO":999,"REV_AT_EPOCH":7709,"BSTAR":0.0030801298,"MEAN_MOTION_DOT":0.00396199,"MEAN_MOTION_DDOT":0},{"OBJECT_NAME":"STARLINK-11429 [DTC]","OBJECT_ID":"2024-217E","EPOCH":"2026-03-21T23:38:36.897792","MEAN_MOTION":15.69720322,"ECCENTRICITY":8.257e-5,"INCLINATION":53.1583,"RA_OF_ASC_NODE":10.7186,"ARG_OF_PERICENTER":26.1582,"MEAN_ANOMALY":333.9477,"EPHEMERIS_TYPE":0,"CLASSIFICATION_TYPE":"U","NORAD_CAT_ID":62061,"ELEMENT_SET_NO":999,"REV_AT_EPOCH":7710,"BSTAR":0.0011705017,"MEAN_MOTION_DOT":0.00143759,"MEAN_MOTION_DDOT":0},{"OBJECT_NAME":"STARLINK-11470 [DTC]","OBJECT_ID":"2024-217F","EPOCH":"2026-03-21T23:31:33.542112","MEAN_MOTION":15.69731579,"ECCENTRICITY":0.00010939,"INCLINATION":53.1578,"RA_OF_ASC_NODE":10.6845,"ARG_OF_PERICENTER":50.9294,"MEAN_ANOMALY":309.1821,"EPHEMERIS_TYPE":0,"CLASSIFICATION_TYPE":"U","NORAD_CAT_ID":62062,"ELEMENT_SET_NO":999,"REV_AT_EPOCH":7704,"BSTAR":0.0019699398,"MEAN_MOTION_DOT":0.00245482,"MEAN_MOTION_DDOT":0},{"OBJECT_NAME":"STARLINK-11427 [DTC]","OBJECT_ID":"2024-217G","EPOCH":"2026-03-21T19:17:40.610400","MEAN_MOTION":15.70070503,"ECCENTRICITY":0.00044232,"INCLINATION":53.1577,"RA_OF_ASC_NODE":11.7237,"ARG_OF_PERICENTER":145.3818,"MEAN_ANOMALY":214.7489,"EPHEMERIS_TYPE":0,"CLASSIFICATION_TYPE":"U","NORAD_CAT_ID":62063,"ELEMENT_SET_NO":999,"REV_AT_EPOCH":7707,"BSTAR":0.0031910033,"MEAN_MOTION_DOT":0.00411967,"MEAN_MOTION_DDOT":0},{"OBJECT_NAME":"STARLINK-11456 [DTC]","OBJECT_ID":"2024-217H","EPOCH":"2026-03-21T23:10:20.846784","MEAN_MOTION":15.69963994,"ECCENTRICITY":0.00045446,"INCLINATION":53.158,"RA_OF_ASC_NODE":10.5902,"ARG_OF_PERICENTER":170.4577,"MEAN_ANOMALY":189.6529,"EPHEMERIS_TYPE":0,"CLASSIFICATION_TYPE":"U","NORAD_CAT_ID":62064,"ELEMENT_SET_NO":999,"REV_AT_EPOCH":7710,"BSTAR":0.0018668823,"MEAN_MOTION_DOT":0.00234619,"MEAN_MOTION_DDOT":0},{"OBJECT_NAME":"STARLINK-11474 [DTC]","OBJECT_ID":"2024-217J","EPOCH":"2026-03-21T22:49:10.214688","MEAN_MOTION":15.70049064,"ECCENTRICITY":9.583e-5,"INCLINATION":53.157,"RA_OF_ASC_NODE":10.4937,"ARG_OF_PERICENTER":195.4778,"MEAN_ANOMALY":164.6211,"EPHEMERIS_TYPE":0,"CLASSIFICATION_TYPE":"U","NORAD_CAT_ID":62065,"ELEMENT_SET_NO":999,"REV_AT_EPOCH":7710,"BSTAR":0.0027597515,"MEAN_MOTION_DOT":0.00353329,"MEAN_MOTION_DDOT":0}]
