STARLINK-32473          
1 62049U 24216T   26080.58185337  .00035549  00000+0  12932-2 0  9996
2 62049  42.9989 189.2231 0002746 270.7110  89.3427 15.27625906 74532
STARLINK-32492          
1 62050U 24216U   26080.77578079  .00053911  00000+0  19503-2 0  9992
2 62050  43.0047 195.0220 0002017 285.5706  74.4923 15.27647891 75646
STARLINK-32496          
1 62051U 24216V   26080.74635906  .00048398  00000+0  17530-2 0  9994
2 62051  42.9990 195.6582 0000781 271.5459  88.5303 15.27650998 75634
STARLINK-32495          
1 62052U 24216W   26080.69239006  .00042251  00000+0  15333-2 0  9991
2 62052  43.0014 195.2570 0001206 267.0419  93.0295 15.27639298 75637
STARLINK-32494          
1 62053U 24216X   26080.65269901  .00054980  00000+0  19882-2 0  9990
2 62053  43.0019 195.8162 0001666 257.3018 102.7648 15.27653029 75620
STARLINK-32408          
1 62054U 24216Y   26080.70877248  .00028034  00000+0  10225-2 0  9999
2 62054  43.0006 188.4579 0001943 271.7050  88.3579 15.27640065 75720
STARLINK-32571          
1 62055U 24216Z   26080.66765351  .00029963  00000+0  10919-2 0  9998
2 62055  43.0014 188.1482 0001356 271.0472  89.0225 15.27641709 75811
STARLINK-11465 [DTC]    
1 62057U 24217A   26080.96062735  .00146791  00000+0  11948-2 0  9992
2 62057  53.1580  10.5586 0001064  38.4482 321.6612 15.69718248 77106
STARLINK-11426 [DTC]    
1 62058U 24217B   26080.95571743  .00241825  00000+0  19473-2 0  9991
2 62058  53.1575  10.5246 0000596  45.9339 314.1728 15.69659338 77049
STARLINK-11454 [DTC]    
1 62059U 24217C   26080.22603062  .00200646  00000+0  16143-2 0  9999
2 62059  53.1577  14.5181 0001112 107.1180 252.9960 15.69814123 76988
STARLINK-11473 [DTC]    
1 62060U 24217D   26080.93621098  .00396199  00000+0  30801-2 0  9994
2 62060  53.1580  11.1297 0003269  23.8003 336.3166 15.70032100 77095
STARLINK-11429 [DTC]    
1 62061U 24217E   26080.98514928  .00143759  00000+0  11705-2 0  9997
2 62061  53.1583  10.7186 0000825  26.1582 333.9477 15.69720322 77102
STARLINK-11470 [DTC]    
1 62062U 24217F   26080.98024933  .00245482  00000+0  19699-2 0  9996
2 62062  53.1578  10.6845 0001093  50.9294 309.1821 15.69731579 77048
STARLINK-11427 [DTC]    
1 62063U 24217G   26080.80394225  .00411967  00000+0  31910-2 0  9995
2 62063  53.1577  11.7237 0004423 145.3818 214.7489 15.70070503 77075
STARLINK-11456 [DTC]    
1 62064U 24217H   26080.96551906  .00234619  00000+0  18669-2 0  9997
2 62064  53.1580  10.5902 0004544 170.4577 189.6529 15.69963994 77103
STARLINK-11474 [DTC]    
1 62065U 24217J   26080.95081267  .00353329  00000+0  27598-2 0  9996
2 62065  53.1570  10.4937 0000958 195.4778 164.6211 15.70049064 77101
